{
  "links": {
    "self": "https://api.nasa.gov/neo/rest/v1/neo/3092128?api_key=myRandomKey"
  },
  "neo_reference_id": "3092128",
  "name": "(1994 TA2)",
  "designation": "1994 TA2",
  "nasa_jpl_url": "http://ssd.jpl.nasa.gov/sbdb.cgi?sstr=3092128",
  "absolute_magnitude_h": 20.3,
  "estimated_diameter": {
    "kilometers": {
      "estimated_diameter_min": 0.2315021222,
      "estimated_diameter_max": 0.5176544822
    },
    "meters": {
      "estimated_diameter_min": 231.5021222103,
      "estimated_diameter_max": 517.6544821978
    },
    "miles": {
      "estimated_diameter_min": 0.1438487052,
      "estimated_diameter_max": 0.3216554833
    },
    "feet": {
      "estimated_diameter_min": 759.5214226325,
      "estimated_diameter_max": 1698.3415313737
    }
  },
  "is_potentially_hazardous_asteroid": false,
  "close_approach_data": [
    {
      "close_approach_date": "1994-08-21",
      "epoch_date_close_approach": 777452400000,
      "relative_velocity": {
        "kilometers_per_second": "4.1034418713",
        "kilometers_per_hour": "14772.3907366372",
        "miles_per_hour": "9178.9891218843"
      },
      "miss_distance": {
        "astronomical": "0.3257951697",
        "lunar": "126.7343215942",
        "kilometers": "48738264",
        "miles": "30284554"
      },
      "orbiting_body": "Earth"
    }
  ],
  "orbital_data": {
    "orbit_id": "12",
    "orbit_determination_date": "2017-04-06 09:18:13",
    "first_observation_date": "1994-10-09",
    "last_observation_date": "1994-10-27",
    "data_arc_in_days": 18,
    "observations_used": 27,
    "orbit_uncertainty": "7",
    "minimum_orbit_intersection": ".260198",
    "jupiter_tisserand_invariant": "3.177",
    "epoch_osculation": "2458600.5",
    "eccentricity": ".5267311176088368",
    "semi_major_axis": "2.63115523824529",
    "inclination": "7.01725043161831",
    "ascending_node_longitude": "200.9095563635586",
    "orbital_period": "1558.899562680662",
    "perihelion_distance": "1.245243899002003",
    "perihelion_argument": "119.2787798944603",
    "aphelion_distance": "4.017066577488577",
    "perihelion_time": "2458938.901357101078",
    "mean_anomaly": "281.8522530425884",
    "mean_motion": ".230932132267039",
    "equinox": "J2000",
    "orbit_class": {
      "orbit_class_type": "AMO",
      "orbit_class_description": "Near-Earth asteroid orbits similar to that of 1221 Amor",
      "orbit_class_range": "1.017 AU < q (perihelion) < 1.3 AU"
    }
  },
  "is_sentry_object": false
}